[{"name":"AISTECHSAT 2","l1":"1 43768U 18099L   26183.60506938  .00006520  00000+0  34662-3 0  9998","l2":"2 43768  97.4280 231.3022 0003403 229.2591 130.8346 15.15604678414617","cat":"other"},{"name":"FOX-1CLIFF (AO-95)","l1":"1 43770U 18099N   26183.60967049  .00011484  00000+0  43514-3 0  9996","l2":"2 43770  97.4375 243.8014 0006930 294.3124  65.7391 15.27038658415571","cat":"other"},{"name":"RANGE-A","l1":"1 43773U 18099R   26182.92196074  .00005589  00000+0  31538-3 0  9997","l2":"2 43773  97.3954 225.0703 0008600 300.1028  59.9350 15.13512963414725","cat":"other"},{"name":"SNUSAT-2","l1":"1 43782U 18099AA  26183.58670595  .00008765  00000+0  38559-3 0  9994","l2":"2 43782  97.4045 236.7351 0009006 234.9023 125.1369 15.22071702415374","cat":"other"},{"name":"SNUGLITE","l1":"1 43784U 18099AC  26183.60537426  .00012016  00000+0  44880-3 0  9992","l2":"2 43784  97.3855 237.7359 0002324 197.1791 162.9370 15.27517014415671","cat":"other"},{"name":"ITASAT","l1":"1 43786U 18099AE  26183.36904435  .00008093  00000+0  38656-3 0  9999","l2":"2 43786  97.4016 234.5787 0010879 302.6059  57.4125 15.19245229415210","cat":"other"},{"name":"EAGLET-I","l1":"1 43790U 18099AJ  26183.59480438  .00004550  00000+0  26073-3 0  9995","l2":"2 43790  97.4219 232.8557 0009455 295.5575  64.4678 15.13055374414660","cat":"other"},{"name":"ESEO","l1":"1 43792U 18099AL  26183.54626869  .00001146  00000+0  86445-4 0  9990","l2":"2 43792  97.3962 220.2773 0010164 283.3873  76.6221 15.04291793414118","cat":"other"},{"name":"THEA","l1":"1 43796U 18099AQ  26183.64923196  .00019209  00000+0  55724-3 0  9992","l2":"2 43796  97.4435 253.4963 0006861 218.6577 141.4176 15.35546327415063","cat":"other"},{"name":"ASTROCAST 0.1","l1":"1 43798U 18099AS  26183.69036396  .00038004  00000+0  66241-3 0  9996","l2":"2 43798  97.4377 262.6809 0005651 160.4018 199.7452 15.50626299416834","cat":"other"},{"name":"JY1SAT (JO-97)","l1":"1 43803U 18099AX  26183.62196426  .00017868  00000+0  54208-3 0  9992","l2":"2 43803  97.4118 246.5140 0005651 198.6681 161.4355 15.34152879415996","cat":"other"},{"name":"SUOMI-100","l1":"1 43804U 18099AY  26183.13169951  .00015147  00000+0  54328-3 0  9993","l2":"2 43804  97.4174 243.4719 0009224 218.5665 141.4917 15.28763890415706","cat":"other"},{"name":"CENTAURI-1","l1":"1 43809U 18099BD  26183.11893147  .00006073  00000+0  31443-3 0  9998","l2":"2 43809  97.4209 234.5184 0012357 275.9310  84.0515 15.16512719414762","cat":"other"},{"name":"GLOBAL-2","l1":"1 43812U 18099BG  26183.32928676  .00003882  00000+0  25083-3 0  9999","l2":"2 43812  97.3543 219.2129 0007560 101.5307 258.6771 15.08760428414198","cat":"other"},{"name":"SEAHAWK-1","l1":"1 43820U 18099BQ  26183.57702534  .00009522  00000+0  40681-3 0  9996","l2":"2 43820  97.3944 235.8295 0006760 248.3121 111.7396 15.23057794414874","cat":"other"},{"name":"SAUDISAT 5A","l1":"1 43831U 18102A   26183.74954017  .00006048  00000+0  22228-3 0  9994","l2":"2 43831  97.3058 245.0314 0011200  82.0529 278.1981 15.28210454418058","cat":"other"},{"name":"SAUDISAT 5B","l1":"1 43833U 18102C   26183.76580990  .00005897  00000+0  21514-3 0  9991","l2":"2 43833  97.3167 248.1453 0011925  83.8022 276.4576 15.28459279418174","cat":"other"},{"name":"ISAT","l1":"1 43879U 18111D   26183.55530416  .00109751  00000+0  97091-3 0  9993","l2":"2 43879  97.5869 119.9899 0005179 159.7546 200.3921 15.68276951413579","cat":"other"},{"name":"UWE-4","l1":"1 43880U 18111E   26183.74326685  .00032995  00000+0  65109-3 0  9997","l2":"2 43880  97.5847 112.8616 0004413 254.2449 105.8314 15.47102682413187","cat":"other"},{"name":"D-STAR ONE (SPARROW)","l1":"1 43881U 18111F   26183.36202675  .00219348  00000+0  11795-2 0  9998","l2":"2 43881  97.6097 125.6990 0006092 138.4422 221.7309 15.79599179413764","cat":"other"},{"name":"JILIN-1 09","l1":"1 43943U 19005B   26183.71035431  .00005043  00000+0  23289-3 0  9990","l2":"2 43943  97.4747 278.5415 0003278  63.2538 296.9032 15.20649587411501","cat":"science"},{"name":"JILIN-1 10","l1":"1 43946U 19005E   26183.73497580  .00006764  00000+0  26661-3 0  9990","l2":"2 43946  97.4796 282.5409 0007356 214.2151 145.8613 15.25890222411681","cat":"science"},{"name":"EGYPTSAT-A (MISRSAT-A)","l1":"1 44047U 19008A   26183.70635116  .00000784  00000+0  13181-3 0  9991","l2":"2 44047  98.0189 248.2593 0001579  97.3223 262.8164 14.72325718395520","cat":"other"},{"name":"EMISAT","l1":"1 44078U 19018A   26183.73878565  .00000354  00000+0  11708-3 0  9992","l2":"2 44078  98.4639 242.4535 0018545 167.4394 192.7262 14.43645055382308","cat":"other"},{"name":"JILIN-1 GAOFEN 3A","l1":"1 44312U 19032C   26183.72632579  .00011847  00000+0  37372-3 0  9995","l2":"2 44312  44.9743 271.3960 0005364  18.4513 341.6565 15.32971427390222","cat":"science"},{"name":"WT 1B","l1":"1 44316U 19032G   26183.76590214  .00011202  00000+0  41840-3 0  9992","l2":"2 44316  44.9718 335.8871 0009702 326.4207  33.6060 15.27497189389461","cat":"other"},{"name":"PROX-1","l1":"1 44339U 19036A   26183.65286113  .00014590  00000+0  14106-2 0  9996","l2":"2 44339  23.9962  10.9133 0005322 216.1031 143.9110 14.90998960375783","cat":"other"},{"name":"NPSAT1","l1":"1 44340U 19036B   26183.47828868  .00006540  00000+0  92078-3 0  9998","l2":"2 44340  23.9982 118.1554 0007341  27.0064 333.0813 14.74718407374759","cat":"other"}]